{
    "links": {
        "self": "http://www.neowsapp.com/rest/v1/neo/3468663?api_key=iIulBulltgU6a56xZRHN4H3l9WmuAYTsLGpBGhQ2"
    },
    "id": "3468663",
    "neo_reference_id": "3468663",
    "name": "(2009 SC170)",
    "designation": "2009 SC170",
    "nasa_jpl_url": "http://ssd.jpl.nasa.gov/sbdb.cgi?sstr=3468663",
    "absolute_magnitude_h": 28.0,
    "estimated_diameter": {
        "kilometers": {
            "estimated_diameter_min": 0.0066765941,
            "estimated_diameter_max": 0.0149293183
        },
        "meters": {
            "estimated_diameter_min": 6.676594135,
            "estimated_diameter_max": 14.9293183439
        },
        "miles": {
            "estimated_diameter_min": 0.004148642,
            "estimated_diameter_max": 0.0092766455
        },
        "feet": {
            "estimated_diameter_min": 21.9048371017,
            "estimated_diameter_max": 48.9807047955
        }
    },
    "is_potentially_hazardous_asteroid": false,
    "close_approach_data": [
        {
            "close_approach_date": "2009-09-21",
            "close_approach_date_full": "2009-Sep-21 06:59",
            "epoch_date_close_approach": 1253516340000,
            "relative_velocity": {
                "kilometers_per_second": "5.6387122423",
                "kilometers_per_hour": "20299.3640724547",
                "miles_per_hour": "12613.2354149094"
            },
            "miss_distance": {
                "astronomical": "0.0113679631",
                "lunar": "4.4221376459",
                "kilometers": "1700623.065998597",
                "miles": "1056718.1725387586"
            },
            "orbiting_body": "Earth"
        },
        {
            "close_approach_date": "2011-10-27",
            "close_approach_date_full": "2011-Oct-27 15:39",
            "epoch_date_close_approach": 1319729940000,
            "relative_velocity": {
                "kilometers_per_second": "4.8644009205",
                "kilometers_per_hour": "17511.8433139069",
                "miles_per_hour": "10881.1784191329"
            },
            "miss_distance": {
                "astronomical": "0.05421101",
                "lunar": "21.08808289",
                "kilometers": "8109851.6265487",
                "miles": "5039228.12862406"
            },
            "orbiting_body": "Mars"
        },
        {
            "close_approach_date": "2014-10-23",
            "close_approach_date_full": "2014-Oct-23 03:40",
            "epoch_date_close_approach": 1414035600000,
            "relative_velocity": {
                "kilometers_per_second": "15.2852566675",
                "kilometers_per_hour": "55026.9240030216",
                "miles_per_hour": "34191.5906395442"
            },
            "miss_distance": {
                "astronomical": "0.32440752",
                "lunar": "126.19452528",
                "kilometers": "48530674.0039824",
                "miles": "30155562.49406112"
            },
            "orbiting_body": "Earth"
        }
    ],
    "orbital_data": {
        "orbit_id": "6",
        "orbit_determination_date": "2017-04-06 08:59:46",
        "first_observation_date": "2009-09-27",
        "last_observation_date": "2009-09-28",
        "data_arc_in_days": 1,
        "observations_used": 15,
        "orbit_uncertainty": "8",
        "minimum_orbit_intersection": ".0112993",
        "jupiter_tisserand_invariant": "4.665",
        "epoch_osculation": "2455102.5",
        "eccentricity": ".3026563850566941",
        "semi_major_axis": "1.417019859933966",
        "inclination": "3.373848648217388",
        "ascending_node_longitude": "8.622635305923492",
        "orbital_period": "616.1157804664748",
        "perihelion_distance": ".9881497515728085",
        "perihelion_argument": "325.8860838488407",
        "aphelion_distance": "1.845889968295123",
        "perihelion_time": "2455074.682913129412",
        "mean_anomaly": "16.2536841140958",
        "mean_motion": ".584305761049386",
        "equinox": "J2000",
        "orbit_class": {
            "orbit_class_type": "APO",
            "orbit_class_description": "Near-Earth asteroid orbits which cross the Earth’s orbit similar to that of 1862 Apollo",
            "orbit_class_range": "a (semi-major axis) > 1.0 AU; q (perihelion) < 1.017 AU"
        }
    },
    "is_sentry_object": false
}